[{"OBJECT_NAME":"STARLINK-32014","OBJECT_ID":"2024-120R","EPOCH":"2026-03-09T09:34:39.793152","MEAN_MOTION":15.30186573,"ECCENTRICITY":0.0001315,"INCLINATION":53.1582,"RA_OF_ASC_NODE":321.1328,"ARG_OF_PERICENTER":96.7773,"MEAN_ANOMALY":263.3377,"EPHEMERIS_TYPE":0,"CLASSIFICATION_TYPE":"U","NORAD_CAT_ID":60150,"ELEMENT_SET_NO":999,"REV_AT_EPOCH":9633,"BSTAR":-8.8447e-5,"MEAN_MOTION_DOT":-2.977e-5,"MEAN_MOTION_DDOT":0},{"OBJECT_NAME":"OBJECT P","OBJECT_ID":"2018-099P","EPOCH":"2026-03-08T15:29:52.588320","MEAN_MOTION":15.30787313,"ECCENTRICITY":0.00077117,"INCLINATION":97.4366,"RA_OF_ASC_NODE":130.8712,"ARG_OF_PERICENTER":281.0146,"MEAN_ANOMALY":79.0227,"EPHEMERIS_TYPE":0,"CLASSIFICATION_TYPE":"U","NORAD_CAT_ID":43771,"ELEMENT_SET_NO":999,"REV_AT_EPOCH":39814,"BSTAR":0.00091234571,"MEAN_MOTION_DOT":0.00027159,"MEAN_MOTION_DDOT":0}]
